{"fetched_at":"2026-03-29T16:36:15Z","count":15609,"tles":[{"name":"STARLINK-5606","line1":"1 55767U 23028AC  26087.54990192  .00001577  00000+0  13990-3 0  9991","line2":"2 55767  70.0005 177.0881 0003302 271.1748  88.9032 14.98336224169338","category":"Starlink"}]}