{
  "norad_id": 55767,
  "name": "STARLINK-5606",
  "history": [
    {
      "epoch": "2026-03-28T13:11:51.525888",
      "apogee_km": 574.3315911416476,
      "perigee_km": 569.7416964672793,
      "latitude_deg": -27.4511973670478,
      "longitude_deg": 169.49058431992307,
      "semi_major_axis_km": 6950.173643804463,
      "eccentricity": 0.0003302,
      "inclination_deg": 70.0005,
      "raan_deg": 177.0881,
      "arg_perigee_deg": 271.1748,
      "mean_anomaly_deg": 88.9032,
      "mean_motion_rev_day": 14.98336224
    }
  ]
}